HST                     
1 20580U 90037B   26189.72127744  .00004866  00000+0  15029-3 0  9997
2 20580  28.4736 293.3726 0001994  41.8079 318.2669 15.31013397791871
POLAR                   
1 23802U 96013A   26188.83341926  .00000206  00000+0  00000+0 0  9991
2 23802  79.8803 226.8071 6491222 208.3689  91.2224  1.29846096145128
SWAS                    
1 25560U 98071A   26189.35087437  .00001620  00000+0  10673-3 0  9994
2 25560  69.8940 172.9364 0008160 237.8075 122.2299 15.09721473500466
CXO                     
1 25867U 99040B   26190.53346781  .00000720  00000+0  00000+0 0  9992
2 25867  56.4882 116.0417 7806470 310.0470   0.4589  0.37804829 17409
XMM-NEWTON              
1 25989U 99066A   26191.28725898  .00000104  00000+0  00000+0 0  9994
2 25989  64.3678 282.6911 4669316  64.5120   0.0817  0.50123471 23117
TERRA                   
1 25994U 99068A   26189.93962939  .00000244  00000+0  58555-4 0  9998
2 25994  97.9444 238.6222 0003129 135.1795 327.3115 14.61120385412784
CLUSTER II-FM7 (SAMBA)  
1 26410U 00041A   26190.44939577  .00010356  00000+0  00000+0 0  9997
2 26410 149.8605  54.9301 9081562 272.3489 359.6364  0.44874124 20413
CLUSTER II-FM8 (TANGO)  
1 26464U 00045B   26188.69917747  .00008173  00000+0  00000+0 0  9993
2 26464 150.0796  55.7437 9084651 272.9971   2.3486  0.44419860 20408
ODIN                    
1 26702U 01007A   26187.98430022  .00262243  00000+0  10929-2 0  9998
2 26702  97.3761 230.3091 0005298 141.5779 218.5869 15.85006600392529
TIMED                   
1 26998U 01055B   26189.95269642  .00000764  00000+0  72913-4 0  9996
2 26998  74.0661 191.1922 0002090 307.0120  53.0872 14.95335991334070
CORIOLIS                
1 27640U 03001A   26189.90038092  .00000064  00000+0  50388-4 0  9997
2 27640  98.7131 196.4538 0014681 146.4496 213.7613 14.19950543217307
SORCE                   
1 27651U 03004A   26189.25839775  .00001826  00000+0  14093-3 0  9996
2 27651  39.9897 141.4467 0018076 207.3902 152.5941 15.03817614275074
MOST                    
1 27843U 03031D   26189.89346291  .00000039  00000+0  37756-4 0  9992
2 27843  98.7049 197.3165 0009717 183.1400 176.9718 14.21326836193790
SCISAT 1                
1 27858U 03036A   26189.90247861  .00000473  00000+0  65080-4 0  9991
2 27858  73.9301 128.1976 0007696 197.4096 162.6818 14.81473913234667
SWIFT                   
1 28485U 04047A   26189.79816232  .00050461  00000+0  38163-3 0  9995
2 28485  20.5535  17.9347 0001256 300.6623  59.3700 15.70581196190269
HINODE (SOLAR-B)        
1 29479U 06041A   26189.91924299  .00000459  00000+0  87254-4 0  9990
2 29479  98.0547 205.7514 0016557 215.0624 144.9492 14.68652804 58060
SHIJIAN-6 02A (SJ-6 02A)
1 29505U 06046A   26189.92385587  .00004188  00000+0  21423-3 0  9995
2 29505  97.6354 231.1550 0004520  77.0550 283.1187 15.17199056 75566
SHIJIAN-6 02B (SJ-6 02B)
1 29506U 06046B   26190.00622867  .00000457  00000+0  40092-4 0  9991
2 29506  97.7153 218.9298 0014162 356.8519   3.2614 15.01429053 74014
FGRST (GLAST)           
1 33053U 08029A   26189.31193161  .00002465  00000+0  85240-4 0  9993
2 33053  25.5826  57.7890 0007825 214.0319 145.9717 15.24050141999062
SDO                     
1 36395U 10005A   26189.29621407 -.00000082  00000+0  00000+0 0  9998
2 36395  34.6924  86.0231 0001701  55.0520 149.4946  1.00269565 60278
CRYOSAT 2               
1 36508U 10013A   26189.99812065  .00000130  00000+0  31470-4 0  9995
2 36508  92.0359 282.6040 0002304  97.8107 262.3362 14.51896862861239
X-SAT                   
1 37389U 11015C   26189.91893535  .00000032  00000+0  31262-4 0  9999
2 37389  98.3524 165.9081 0012783 281.3123  78.6621 14.25212678790772
GCOM-W1 (SHIZUKU)       
1 38337U 12025A   26189.87066221  .00000303  00000+0  77281-4 0  9996
2 38337  98.2024 130.0997 0001435  71.7849 356.0694 14.57086661752190
NUSTAR                  
1 38358U 12031A   26190.00002315  .00001255  00000+0  24649-4 0  9994
2 38358   6.0259 230.5162 0006736  69.3083  31.7408 15.09011392  1309
NEOSSAT                 
1 39089U 13009D   26189.25480259  .00000117  00000+0  55208-4 0  9995
2 39089  98.4187   8.7873 0011006 177.4025 182.7220 14.35833847699760
BRITE-AUSTRIA           
1 39091U 13009F   26189.93945591  .00000114  00000+0  53493-4 0  9999
2 39091  98.4005   8.8378 0010385 168.5831 191.5593 14.36550763700171
IRIS                    
1 39197U 13033A   26189.51171484  .00000796  00000+0  97230-4 0  9992
2 39197  97.9322  28.7216 0023022 248.1255 111.7512 14.85927927703546
HISAKI (SPRINT-A)       
1 39253U 13049A   26189.48678398  .00000093  00000+0  35828-4 0  9999
2 39253  29.7196 111.7184 0136922 189.5384 170.2575 13.55546331634312
CASSIOPE                
1 39265U 13055A   26189.92846127  .00031377 -48303-6  33726-3 0  9994
2 39265  80.9139  40.2778 0284430 349.1512  10.3661 15.27111074670987
STSAT-3                 
1 39422U 13066G   26189.95215179  .00001336  00000+0  10407-3 0  9998
2 39422  97.6200 159.4900 0008980 331.1788  28.8940 15.02867950687476
SWARM B                 
1 39451U 13067A   26189.93341282  .00002373  00000+0  83857-4 0  9996
2 39451  87.7453 335.7101 0002542  80.7051 279.4486 15.28690270686563
